[{"OBJECT_NAME":"STARLINK-36326","OBJECT_ID":"2026-068M","EPOCH":"2026-04-14T04:33:05.825664","MEAN_MOTION":15.80949264,"ECCENTRICITY":7.06e-5,"INCLINATION":53.1584,"RA_OF_ASC_NODE":331.3317,"ARG_OF_PERICENTER":59.619,"MEAN_ANOMALY":300.4903,"EPHEMERIS_TYPE":0,"CLASSIFICATION_TYPE":"U","NORAD_CAT_ID":68519,"ELEMENT_SET_NO":999,"REV_AT_EPOCH":228,"BSTAR":0.00075292324,"MEAN_MOTION_DOT":0.00151061,"MEAN_MOTION_DDOT":0},{"OBJECT_NAME":"STARLINK-37126","OBJECT_ID":"2026-068N","EPOCH":"2026-04-14T04:30:56.206656","MEAN_MOTION":15.80953482,"ECCENTRICITY":3.338e-5,"INCLINATION":53.1586,"RA_OF_ASC_NODE":331.322,"ARG_OF_PERICENTER":59.4936,"MEAN_ANOMALY":300.612,"EPHEMERIS_TYPE":0,"CLASSIFICATION_TYPE":"U","NORAD_CAT_ID":68520,"ELEMENT_SET_NO":999,"REV_AT_EPOCH":228,"BSTAR":0.00075779367,"MEAN_MOTION_DOT":0.00152093,"MEAN_MOTION_DDOT":0},{"OBJECT_NAME":"STARLINK-36347","OBJECT_ID":"2026-068P","EPOCH":"2026-04-14T02:58:49.590912","MEAN_MOTION":15.80932926,"ECCENTRICITY":8.223e-5,"INCLINATION":53.1589,"RA_OF_ASC_NODE":331.634,"ARG_OF_PERICENTER":89.063,"MEAN_ANOMALY":271.0486,"EPHEMERIS_TYPE":0,"CLASSIFICATION_TYPE":"U","NORAD_CAT_ID":68521,"ELEMENT_SET_NO":999,"REV_AT_EPOCH":227,"BSTAR":0.00069754948,"MEAN_MOTION_DOT":0.00139607,"MEAN_MOTION_DDOT":0},{"OBJECT_NAME":"STARLINK-36322","OBJECT_ID":"2026-068Q","EPOCH":"2026-04-14T04:28:46.912512","MEAN_MOTION":15.80946445,"ECCENTRICITY":8.981e-5,"INCLINATION":53.1585,"RA_OF_ASC_NODE":331.3123,"ARG_OF_PERICENTER":77.0522,"MEAN_ANOMALY":283.0601,"EPHEMERIS_TYPE":0,"CLASSIFICATION_TYPE":"U","NORAD_CAT_ID":68522,"ELEMENT_SET_NO":999,"REV_AT_EPOCH":228,"BSTAR":0.000777374,"MEAN_MOTION_DOT":0.0015606,"MEAN_MOTION_DDOT":0},{"OBJECT_NAME":"STARLINK-37208","OBJECT_ID":"2026-068R","EPOCH":"2026-04-14T04:27:41.710752","MEAN_MOTION":15.80949804,"ECCENTRICITY":3.943e-5,"INCLINATION":53.1592,"RA_OF_ASC_NODE":331.3073,"ARG_OF_PERICENTER":85.907,"MEAN_ANOMALY":274.1998,"EPHEMERIS_TYPE":0,"CLASSIFICATION_TYPE":"U","NORAD_CAT_ID":68523,"ELEMENT_SET_NO":999,"REV_AT_EPOCH":228,"BSTAR":0.00074510731,"MEAN_MOTION_DOT":0.00149463,"MEAN_MOTION_DDOT":0},{"OBJECT_NAME":"STARLINK-36302","OBJECT_ID":"2026-068S","EPOCH":"2026-04-14T02:55:35.172768","MEAN_MOTION":15.80921961,"ECCENTRICITY":7.465e-5,"INCLINATION":53.1589,"RA_OF_ASC_NODE":331.6191,"ARG_OF_PERICENTER":96.512,"MEAN_ANOMALY":263.5988,"EPHEMERIS_TYPE":0,"CLASSIFICATION_TYPE":"U","NORAD_CAT_ID":68524,"ELEMENT_SET_NO":999,"REV_AT_EPOCH":227,"BSTAR":0.00060572095,"MEAN_MOTION_DOT":0.00120809,"MEAN_MOTION_DDOT":0},{"OBJECT_NAME":"STARLINK-36311","OBJECT_ID":"2026-068T","EPOCH":"2026-04-14T02:53:25.084608","MEAN_MOTION":15.80949996,"ECCENTRICITY":2.2e-5,"INCLINATION":53.1589,"RA_OF_ASC_NODE":331.6087,"ARG_OF_PERICENTER":193.0518,"MEAN_ANOMALY":167.0499,"EPHEMERIS_TYPE":0,"CLASSIFICATION_TYPE":"U","NORAD_CAT_ID":68525,"ELEMENT_SET_NO":999,"REV_AT_EPOCH":227,"BSTAR":0.00078357971,"MEAN_MOTION_DOT":0.00157365,"MEAN_MOTION_DDOT":0},{"OBJECT_NAME":"STARLINK-37178","OBJECT_ID":"2026-068U","EPOCH":"2026-04-14T06:00:02.000160","MEAN_MOTION":15.80893806,"ECCENTRICITY":7.324e-5,"INCLINATION":53.1585,"RA_OF_ASC_NODE":330.9688,"ARG_OF_PERICENTER":80.2322,"MEAN_ANOMALY":293.5394,"EPHEMERIS_TYPE":0,"CLASSIFICATION_TYPE":"U","NORAD_CAT_ID":68526,"ELEMENT_SET_NO":999,"REV_AT_EPOCH":352,"BSTAR":-0.00035174586,"MEAN_MOTION_DOT":-0.00069628,"MEAN_MOTION_DDOT":0},{"OBJECT_NAME":"STARLINK-37248","OBJECT_ID":"2026-068V","EPOCH":"2026-04-14T04:23:22.740576","MEAN_MOTION":15.80954899,"ECCENTRICITY":9.477e-5,"INCLINATION":53.159,"RA_OF_ASC_NODE":331.2868,"ARG_OF_PERICENTER":46.5916,"MEAN_ANOMALY":313.5186,"EPHEMERIS_TYPE":0,"CLASSIFICATION_TYPE":"U","NORAD_CAT_ID":68527,"ELEMENT_SET_NO":999,"REV_AT_EPOCH":228,"BSTAR":0.00089414534,"MEAN_MOTION_DOT":0.00180185,"MEAN_MOTION_DDOT":0},{"OBJECT_NAME":"STARLINK-37241","OBJECT_ID":"2026-068W","EPOCH":"2026-04-14T06:00:02.000160","MEAN_MOTION":15.80901795,"ECCENTRICITY":0.00010823,"INCLINATION":53.1586,"RA_OF_ASC_NODE":330.9335,"ARG_OF_PERICENTER":55.6758,"MEAN_ANOMALY":335.18,"EPHEMERIS_TYPE":0,"CLASSIFICATION_TYPE":"U","NORAD_CAT_ID":68528,"ELEMENT_SET_NO":999,"REV_AT_EPOCH":352,"BSTAR":-0.00040608754,"MEAN_MOTION_DOT":-0.00080213,"MEAN_MOTION_DDOT":0},{"OBJECT_NAME":"STARLINK-37244","OBJECT_ID":"2026-068X","EPOCH":"2026-04-14T06:00:02.000160","MEAN_MOTION":15.80898211,"ECCENTRICITY":8.413e-5,"INCLINATION":53.1591,"RA_OF_ASC_NODE":330.9426,"ARG_OF_PERICENTER":80.5575,"MEAN_ANOMALY":306.0245,"EPHEMERIS_TYPE":0,"CLASSIFICATION_TYPE":"U","NORAD_CAT_ID":68529,"ELEMENT_SET_NO":999,"REV_AT_EPOCH":352,"BSTAR":-0.00034722512,"MEAN_MOTION_DOT":-0.00068764,"MEAN_MOTION_DDOT":0},{"OBJECT_NAME":"STARLINK-36285","OBJECT_ID":"2026-068Y","EPOCH":"2026-04-14T02:49:06.337344","MEAN_MOTION":15.80925923,"ECCENTRICITY":0.00010755,"INCLINATION":53.1591,"RA_OF_ASC_NODE":331.5893,"ARG_OF_PERICENTER":54.2674,"MEAN_ANOMALY":305.8449,"EPHEMERIS_TYPE":0,"CLASSIFICATION_TYPE":"U","NORAD_CAT_ID":68530,"ELEMENT_SET_NO":999,"REV_AT_EPOCH":227,"BSTAR":0.00067446949,"MEAN_MOTION_DOT":0.00134846,"MEAN_MOTION_DDOT":0},{"OBJECT_NAME":"STARLINK-36294","OBJECT_ID":"2026-068Z","EPOCH":"2026-04-14T06:00:02.000160","MEAN_MOTION":15.80877196,"ECCENTRICITY":8.128e-5,"INCLINATION":53.1588,"RA_OF_ASC_NODE":330.9157,"ARG_OF_PERICENTER":78.4551,"MEAN_ANOMALY":320.9464,"EPHEMERIS_TYPE":0,"CLASSIFICATION_TYPE":"U","NORAD_CAT_ID":68531,"ELEMENT_SET_NO":999,"REV_AT_EPOCH":347,"BSTAR":-0.00024412014,"MEAN_MOTION_DOT":-0.00048617,"MEAN_MOTION_DDOT":0},{"OBJECT_NAME":"STARLINK-36249","OBJECT_ID":"2026-068AA","EPOCH":"2026-04-14T02:45:51.929568","MEAN_MOTION":15.80924874,"ECCENTRICITY":0.00011525,"INCLINATION":53.1594,"RA_OF_ASC_NODE":331.5727,"ARG_OF_PERICENTER":69.2724,"MEAN_ANOMALY":290.8422,"EPHEMERIS_TYPE":0,"CLASSIFICATION_TYPE":"U","NORAD_CAT_ID":68532,"ELEMENT_SET_NO":999,"REV_AT_EPOCH":227,"BSTAR":0.0006078561,"MEAN_MOTION_DOT":0.0012126,"MEAN_MOTION_DDOT":0},{"OBJECT_NAME":"STARLINK-36252","OBJECT_ID":"2026-068AB","EPOCH":"2026-04-14T02:46:56.805600","MEAN_MOTION":15.8093308,"ECCENTRICITY":0.0001297,"INCLINATION":53.1591,"RA_OF_ASC_NODE":331.5775,"ARG_OF_PERICENTER":61.0721,"MEAN_ANOMALY":299.0432,"EPHEMERIS_TYPE":0,"CLASSIFICATION_TYPE":"U","NORAD_CAT_ID":68533,"ELEMENT_SET_NO":999,"REV_AT_EPOCH":227,"BSTAR":0.00073705642,"MEAN_MOTION_DOT":0.00147694,"MEAN_MOTION_DDOT":0},{"OBJECT_NAME":"STARLINK-36299","OBJECT_ID":"2026-068AC","EPOCH":"2026-04-14T02:44:47.051808","MEAN_MOTION":15.80946276,"ECCENTRICITY":8.305e-5,"INCLINATION":53.1595,"RA_OF_ASC_NODE":331.5678,"ARG_OF_PERICENTER":70.1123,"MEAN_ANOMALY":289.9989,"EPHEMERIS_TYPE":0,"CLASSIFICATION_TYPE":"U","NORAD_CAT_ID":68534,"ELEMENT_SET_NO":999,"REV_AT_EPOCH":227,"BSTAR":0.00086777068,"MEAN_MOTION_DOT":0.00174667,"MEAN_MOTION_DDOT":0}]
