STARLINK-36326          
1 68519U 26068M   26104.18965076  .00151061  00000+0  75292-3 0  9997
2 68519  53.1584 331.3317 0000706  59.6190 300.4903 15.80949264  2280
STARLINK-37126          
1 68520U 26068N   26104.18815054  .00152093  00000+0  75779-3 0  9995
2 68520  53.1586 331.3220 0000333  59.4936 300.6120 15.80953482  2289
STARLINK-36347          
1 68521U 26068P   26104.12418508  .00139607  00000+0  69755-3 0  9996
2 68521  53.1589 331.6340 0000822  89.0630 271.0486 15.80932926  2277
STARLINK-36322          
1 68522U 26068Q   26104.18665408  .00156060  00000+0  77737-3 0  9997
2 68522  53.1585 331.3123 0000898  77.0522 283.0601 15.80946445  2284
STARLINK-37208          
1 68523U 26068R   26104.18589943  .00149463  00000+0  74511-3 0  9993
2 68523  53.1592 331.3073 0000394  85.9070 274.1998 15.80949804  2286
STARLINK-36302          
1 68524U 26068S   26104.12193487  .00120809  00000+0  60572-3 0  9997
2 68524  53.1589 331.6191 0000746  96.5120 263.5988 15.80921961  2276
STARLINK-36311          
1 68525U 26068T   26104.12042922  .00157365  00000+0  78358-3 0  9993
2 68525  53.1589 331.6087 0000220 193.0518 167.0499 15.80949996  2275
STARLINK-37178          
1 68526U 26068U   26104.25002315 -.00069628  00000+0 -35175-3 0  9996
2 68526  53.1585 330.9688 0000732  80.2322 293.5394 15.80893806  3525
STARLINK-37248          
1 68527U 26068V   26104.18290209  .00180185  00000+0  89415-3 0  9996
2 68527  53.1590 331.2868 0000947  46.5916 313.5186 15.80954899  2282
STARLINK-37241          
1 68528U 26068W   26104.25002315 -.00080213  00000+0 -40609-3 0  9999
2 68528  53.1586 330.9335 0001082  55.6758 335.1800 15.80901795  3527
STARLINK-37244          
1 68529U 26068X   26104.25002315 -.00068764  00000+0 -34723-3 0  9997
2 68529  53.1591 330.9426 0000841  80.5575 306.0245 15.80898211  3529
STARLINK-36285          
1 68530U 26068Y   26104.11743446  .00134846  00000+0  67447-3 0  9993
2 68530  53.1591 331.5893 0001075  54.2674 305.8449 15.80925923  2279
STARLINK-36294          
1 68531U 26068Z   26104.25002315 -.00048617  00000+0 -24412-3 0  9999
2 68531  53.1588 330.9157 0000812  78.4551 320.9464 15.80877196  3478
STARLINK-36249          
1 68532U 26068AA  26104.11518437  .00121260  00000+0  60786-3 0  9990
2 68532  53.1594 331.5727 0001152  69.2724 290.8422 15.80924874  2276
STARLINK-36252          
1 68533U 26068AB  26104.11593525  .00147694  00000+0  73706-3 0  9997
2 68533  53.1591 331.5775 0001297  61.0721 299.0432 15.80933080  2275
STARLINK-36299          
1 68534U 26068AC  26104.11443347  .00174667  00000+0  86777-3 0  9996
2 68534  53.1595 331.5678 0000830  70.1123 289.9989 15.80946276  2277
